{"type": "FeatureCollection", "features": [ {"type": "Feature", "properties": {"norad_id": 30480, "name": "FENGYUN 1C DEB", "group": "fengyun-1c-debris", "lat": 10.248957585105494, "lon": -9.451720379488131, "alt_km": 895.8468139876495, "timestamp": "2025-12-02T17:49:12.304688+00:00", "meta": {"OBJECT_NAME": "FENGYUN 1C DEB", "OBJECT_ID": "1999-025AGS", "EPOCH": "2025-12-02T07:47:42.865152", "MEAN_MOTION": 14.33576323, "ECCENTRICITY": 0.0165835, "INCLINATION": 98.2247, "RA_OF_ASC_NODE": 351.6496, "ARG_OF_PERICENTER": 176.6806, "MEAN_ANOMALY": 199.829, "EPHEMERIS_TYPE": 0, "CLASSIFICATION_TYPE": "U", "NORAD_CAT_ID": 30480, "ELEMENT_SET_NO": 999, "REV_AT_EPOCH": 98519, "BSTAR": 0.0002932, "MEAN_MOTION_DOT": 9.02e-06, "MEAN_MOTION_DDOT": 0}, "tle": {"line1": "1 30480U 99025AGS 25336.32480168  .00000902  00000+0  29320-3 0  9990", "line2": "2 30480  98.2247 351.6496 0165835 176.6806 199.8290 14.33576323985192"}}, "geometry": {"type": "Point", "coordinates": [-9.451720379488131, 10.248957585105494]}}, {"type": "Feature", "properties": {"norad_id": 30481, "name": "FENGYUN 1C DEB", "group": "fengyun-1c-debris", "lat": -69.60270692429172, "lon": 17.543580702629008, "alt_km": 609.8590968035596, "timestamp": "2025-12-02T17:49:12.304698+00:00", "meta": {"OBJECT_NAME": "FENGYUN 1C DEB", "OBJECT_ID": "1999-025AGT", "EPOCH": "2025-12-02T12:14:49.913088", "MEAN_MOTION": 14.38961124, "ECCENTRICITY": 0.0223186, "INCLINATION": 98.3375, "RA_OF_ASC_NODE": 354.0903, "ARG_OF_PERICENTER": 290.9064, "MEAN_ANOMALY": 235.7032, "EPHEMERIS_TYPE": 0, "CLASSIFICATION_TYPE": "U", "NORAD_CAT_ID": 30481, "ELEMENT_SET_NO": 999, "REV_AT_EPOCH": 98336, "BSTAR": 0.0007819, "MEAN_MOTION_DOT": 3.174e-05, "MEAN_MOTION_DDOT": 0}, "tle": {"line1": "1 30481U 99025AGT 25336.51029992  .00003174  00000+0  78190-3 0  9999", "line2": "2 30481  98.3375 354.0903 0223186 290.9064 235.7032 14.38961124983369"}}, "geometry": {"type": "Point", "coordinates": [17.543580702629008, -69.60270692429172]}}, {"type": "Feature", "properties": {"norad_id": 30486, "name": "FENGYUN 1C DEB", "group": "fengyun-1c-debris", "lat": -67.7349120438865, "lon": 165.68555176128748, "alt_km": 305.41507580858433, "timestamp": "2025-12-02T17:49:12.304709+00:00", "meta": {"OBJECT_NAME": "FENGYUN 1C DEB", "OBJECT_ID": "1999-025AGY", "EPOCH": "2025-12-02T01:38:11.279040", "MEAN_MOTION": 15.86340289, "ECCENTRICITY": 0.00192474, "INCLINATION": 98.8047, "RA_OF_ASC_NODE": 7.0638, "ARG_OF_PERICENTER": 231.665, "MEAN_ANOMALY": 128.2887, "EPHEMERIS_TYPE": 0, "CLASSIFICATION_TYPE": "U", "NORAD_CAT_ID": 30486, "ELEMENT_SET_NO": 999, "REV_AT_EPOCH": 1584, "BSTAR": 0.0023742728, "MEAN_MOTION_DOT": 0.00597121, "MEAN_MOTION_DDOT": 0.00013466894}, "tle": {"line1": "1 30486U 99025AGY 25336.06818610  .00597121  13467-3  23743-2 0  9995", "line2": "2 30486  98.8047   7.0638 0019247 231.6650 128.2887 15.86340289 15849"}}, "geometry": {"type": "Point", "coordinates": [165.68555176128748, -67.7349120438865]}}, {"type": "Feature", "properties": {"norad_id": 30489, "name": "FENGYUN 1C DEB", "group": "fengyun-1c-debris", "lat": -72.89599670465671, "lon": 143.16616463961356, "alt_km": 768.375239088321, "timestamp": "2025-12-02T17:49:12.304719+00:00", "meta": {"OBJECT_NAME": "FENGYUN 1C DEB", "OBJECT_ID": "1999-025AHB", "EPOCH": "2025-12-02T12:15:31.836960", "MEAN_MOTION": 14.15799944, "ECCENTRICITY": 0.0138992, "INCLINATION": 98.4693, "RA_OF_ASC_NODE": 351.9062, "ARG_OF_PERICENTER": 294.7421, "MEAN_ANOMALY": 220.9344, "EPHEMERIS_TYPE": 0, "CLASSIFICATION_TYPE": "U", "NORAD_CAT_ID": 30489, "ELEMENT_SET_NO": 999, "REV_AT_EPOCH": 97242, "BSTAR": 0.00037957, "MEAN_MOTION_DOT": 7.77e-06, "MEAN_MOTION_DDOT": 0}, "tle": {"line1": "1 30489U 99025AHB 25336.51078515  .00000777  00000+0  37957-3 0  9994", "line2": "2 30489  98.4693 351.9062 0138992 294.7421 220.9344 14.15799944972423"}}, "geometry": {"type": "Point", "coordinates": [143.16616463961356, -72.89599670465671]}}, {"type": "Feature", "properties": {"norad_id": 30490, "name": "FENGYUN 1C DEB", "group": "fengyun-1c-debris", "lat": 20.477848483800656, "lon": 104.10278996100408, "alt_km": 516.4347384023886, "timestamp": "2025-12-02T17:49:12.304729+00:00", "meta": {"OBJECT_NAME": "FENGYUN 1C DEB", "OBJECT_ID": "1999-025AHC", "EPOCH": "2025-12-02T08:16:53.182272", "MEAN_MOTION": 15.25152944, "ECCENTRICITY": 0.0053928, "INCLINATION": 98.3342, "RA_OF_ASC_NODE": 106.7988, "ARG_OF_PERICENTER": 157.8147, "MEAN_ANOMALY": 202.5439, "EPHEMERIS_TYPE": 0, "CLASSIFICATION_TYPE": "U", "NORAD_CAT_ID": 30490, "ELEMENT_SET_NO": 999, "REV_AT_EPOCH": 99337, "BSTAR": 0.0050459, "MEAN_MOTION_DOT": 0.00133901, "MEAN_MOTION_DDOT": 0}, "tle": {"line1": "1 30490U 99025AHC 25336.34505998  .00133901  00000+0  50459-2 0  9994", "line2": "2 30490  98.3342 106.7988 0053928 157.8147 202.5439 15.25152944993370"}}, "geometry": {"type": "Point", "coordinates": [104.10278996100408, 20.477848483800656]}}, {"type": "Feature", "properties": {"norad_id": 30492, "name": "FENGYUN 1C DEB", "group": "fengyun-1c-debris", "lat": 21.347414073825544, "lon": 174.28063795911388, "alt_km": 694.7798468645578, "timestamp": "2025-12-02T17:49:12.304739+00:00", "meta": {"OBJECT_NAME": "FENGYUN 1C DEB", "OBJECT_ID": "1999-025AHE", "EPOCH": "2025-12-01T22:54:20.434752", "MEAN_MOTION": 14.51393348, "ECCENTRICITY": 0.00958651, "INCLINATION": 102.3269, "RA_OF_ASC_NODE": 348.227, "ARG_OF_PERICENTER": 91.9895, "MEAN_ANOMALY": 269.2266, "EPHEMERIS_TYPE": 0, "CLASSIFICATION_TYPE": "U", "NORAD_CAT_ID": 30492, "ELEMENT_SET_NO": 999, "REV_AT_EPOCH": 96738, "BSTAR": 0.003400314, "MEAN_MOTION_DOT": 0.00014343, "MEAN_MOTION_DDOT": 0}, "tle": {"line1": "1 30492U 99025AHE 25335.95440318  .00014343  00000+0  34003-2 0  9991", "line2": "2 30492 102.3269 348.2270 0095865  91.9895 269.2266 14.51393348967380"}}, "geometry": {"type": "Point", "coordinates": [174.28063795911388, 21.347414073825544]}}, {"type": "Feature", "properties": {"norad_id": 30493, "name": "FENGYUN 1C DEB", "group": "fengyun-1c-debris", "lat": 71.90122642083497, "lon": 140.31874238650917, "alt_km": 1042.8983679127168, "timestamp": "2025-12-02T17:49:12.304749+00:00", "meta": {"OBJECT_NAME": "FENGYUN 1C DEB", "OBJECT_ID": "1999-025AHF", "EPOCH": "2025-12-02T00:57:25.777152", "MEAN_MOTION": 13.92807961, "ECCENTRICITY": 0.01822675, "INCLINATION": 98.5711, "RA_OF_ASC_NODE": 167.1484, "ARG_OF_PERICENTER": 246.3363, "MEAN_ANOMALY": 266.961, "EPHEMERIS_TYPE": 0, "CLASSIFICATION_TYPE": "U", "NORAD_CAT_ID": 30493, "ELEMENT_SET_NO": 999, "REV_AT_EPOCH": 94946, "BSTAR": 0.0034433948, "MEAN_MOTION_DOT": 5.072e-05, "MEAN_MOTION_DDOT": 0}, "tle": {"line1": "1 30493U 99025AHF 25336.03988168  .00005072  00000+0  34434-2 0  9999", "line2": "2 30493  98.5711 167.1484 0182267 246.3363 266.9610 13.92807961949464"}}, "geometry": {"type": "Point", "coordinates": [140.31874238650917, 71.90122642083497]}}, {"type": "Feature", "properties": {"norad_id": 30494, "name": "FENGYUN 1C DEB", "group": "fengyun-1c-debris", "lat": 61.27458489495292, "lon": -150.3171292933012, "alt_km": 1048.889718614888, "timestamp": "2025-12-02T17:49:12.304759+00:00", "meta": {"OBJECT_NAME": "FENGYUN 1C DEB", "OBJECT_ID": "1999-025AHG", "EPOCH": "2025-12-02T08:31:53.629248", "MEAN_MOTION": 13.79317953, "ECCENTRICITY": 0.0185433, "INCLINATION": 99.2841, "RA_OF_ASC_NODE": 11.9386, "ARG_OF_PERICENTER": 249.6639, "MEAN_ANOMALY": 108.4504, "EPHEMERIS_TYPE": 0, "CLASSIFICATION_TYPE": "U", "NORAD_CAT_ID": 30494, "ELEMENT_SET_NO": 999, "REV_AT_EPOCH": 94343, "BSTAR": 0.0018916, "MEAN_MOTION_DOT": 2.164e-05, "MEAN_MOTION_DDOT": 0}, "tle": {"line1": "1 30494U 99025AHG 25336.35548182  .00002164  00000+0  18916-2 0  9999", "line2": "2 30494  99.2841  11.9386 0185433 249.6639 108.4504 13.79317953943439"}}, "geometry": {"type": "Point", "coordinates": [-150.3171292933012, 61.27458489495292]}}, {"type": "Feature", "properties": {"norad_id": 30495, "name": "FENGYUN 1C DEB", "group": "fengyun-1c-debris", "lat": -68.83243775526789, "lon": 98.47759258332859, "alt_km": 834.6725478227827, "timestamp": "2025-12-02T17:49:12.304769+00:00", "meta": {"OBJECT_NAME": "FENGYUN 1C DEB", "OBJECT_ID": "1999-025AHH", "EPOCH": "2025-12-02T01:27:58.709952", "MEAN_MOTION": 12.9432015, "ECCENTRICITY": 0.05961511, "INCLINATION": 102.2618, "RA_OF_ASC_NODE": 63.5487, "ARG_OF_PERICENTER": 288.4982, "MEAN_ANOMALY": 65.2242, "EPHEMERIS_TYPE": 0, "CLASSIFICATION_TYPE": "U", "NORAD_CAT_ID": 30495, "ELEMENT_SET_NO": 999, "REV_AT_EPOCH": 88535, "BSTAR": 0.0028391498, "MEAN_MOTION_DOT": 1.715e-05, "MEAN_MOTION_DDOT": 0}, "tle": {"line1": "1 30495U 99025AHH 25336.06109618  .00001715  00000+0  28391-2 0  9994", "line2": "2 30495 102.2618  63.5487 0596151 288.4982  65.2242 12.94320150885351"}}, "geometry": {"type": "Point", "coordinates": [98.47759258332859, -68.83243775526789]}}, {"type": "Feature", "properties": {"norad_id": 30496, "name": "FENGYUN 1C DEB", "group": "fengyun-1c-debris", "lat": -3.3844431137252187, "lon": 60.8797914397394, "alt_km": 534.5419637059094, "timestamp": "2025-12-02T17:49:12.304779+00:00", "meta": {"OBJECT_NAME": "FENGYUN 1C DEB", "OBJECT_ID": "1999-025AHJ", "EPOCH": "2025-12-02T05:45:40.546368", "MEAN_MOTION": 14.94045373, "ECCENTRICITY": 0.0130329, "INCLINATION": 98.7842, "RA_OF_ASC_NODE": 240.8422, "ARG_OF_PERICENTER": 131.0038, "MEAN_ANOMALY": 230.2537, "EPHEMERIS_TYPE": 0, "CLASSIFICATION_TYPE": "U", "NORAD_CAT_ID": 30496, "ELEMENT_SET_NO": 999, "REV_AT_EPOCH": 987, "BSTAR": 0.00059538, "MEAN_MOTION_DOT": 7.443e-05, "MEAN_MOTION_DDOT": 0}, "tle": {"line1": "1 30496U 99025AHJ 25336.24005262  .00007443  00000+0  59538-3 0  9997", "line2": "2 30496  98.7842 240.8422 0130329 131.0038 230.2537 14.94045373  9874"}}, "geometry": {"type": "Point", "coordinates": [60.8797914397394, -3.3844431137252187]}}]}